SHIJIAN-25 (SJ-25)      
1 62485U 25002A   26189.74349670 -.00000340  00000+0  00000+0 0  9996
2 62485   5.1612  61.0223 0052165 175.1217  85.5048  1.00267140  5577
TJS-14                  
1 62804U 25017A   26189.85955780  .00000130  00000+0  00000+0 0  9990
2 62804   0.7361 297.1322 0001687 292.6804  24.8268  1.00273395  5485
SPAINSAT NG I           
1 62852U 25021A   26189.87336187  .00000166  00000+0  00000+0 0  9993
2 62852   0.0174  21.0320 0000112 221.1002  28.0797  1.00270135  4205
QZS-6 (MICHIBIKI-6)     
1 62876U 25023A   26189.91850285 -.00000218  00000+0  00000+0 0  9995
2 62876   0.0273 304.9773 0001859 182.4519 220.6003  1.00268987  5165
ZHONGXING-10R           
1 63075U 25036A   26189.87777890 -.00000337  00000+0  00000+0 0  9998
2 63075   0.0464 228.3084 0004172 284.9119 200.0846  1.00267021  5174
TJS-15                  
1 63157U 25045A   26189.76572477 -.00000250  00000+0  00000+0 0  9995
2 63157   0.3063  85.6177 0003463 297.5186 273.6120  1.00271848  4976
TIANLIAN 2-04           
1 63361U 25062A   26189.89047690 -.00000116  00000+0  00000+0 0  9990
2 63361   4.3218 274.1262 0031456   9.4147  43.9059  1.00270302  4826
TJS-16                  
1 63397U 25064A   26189.73960985 -.00000091  00000+0  00000+0 0  9997
2 63397   1.1505  81.3303 0002599 293.2592 338.9845  1.00271129  4600
TJS-17                  
1 63524U 25073A   26189.69138375 -.00000056  00000+0  00000+0 0  9995
2 63524   1.1163  82.5170 0001148 308.4962 309.0465  1.00270527  4503
TIANLIAN 2-05           
1 63662U 25084A   26189.78869793  .00000142  00000+0  00000+0 0  9990
2 63662   4.3993 279.5834 0002814 152.7673 158.7072  1.00269518  4597
TJS-19                  
1 63924U 25097A   26189.73958358 -.00000260  00000+0  00000+0 0  9998
2 63924   3.2518 317.7721 0003820 243.0314 133.3884  1.00268916  4369
CHINASAT 3B             
1 64062U 25106A   26189.88887229 -.00000029  00000+0  00000+0 0  9990
2 64062   0.0362 171.9034 0003941 333.0649 269.1665  1.00278630  4276
SXM-10                  
1 64290U 25122A   26189.69474726 -.00000002  00000+0  00000+0 0  9995
2 64290   0.0171  37.1150 0001554 323.9440  59.5407  1.00270902  3890
COSMOS 2589             
1 64467U 25131A   26189.67802382 -.00000276  00000+0  00000+0 0  9995
2 64467   0.0496 101.4705 0001302 117.5036  49.7192  1.00269150  3778
CHINASAT 9C             
1 64470U 25132A   26189.91850285 -.00000233  00000+0  00000+0 0  9995
2 64470   0.0364 240.8771 0002979 230.1206 238.7456  1.00271173  4366
MTG-S1                  
1 64723U 25143A   26189.85583111  .00000007  00000+0  00000+0 0  9990
2 64723   0.5879 343.5371 0003354 262.1393 348.7838  1.00272591  3630
DROR 1                  
1 64784U 25148A   26189.92638003 -.00000020  00000+0  00000+0 0  9997
2 64784   0.0552 267.0494 0002180 130.3532 218.9607  1.00271321  3512
SHIYAN-29               
1 65486U 25196A   26189.87644994 -.00000274  00000+0  00000+0 0  9991
2 65486  28.8440  18.2619 0013551 176.8148 142.4919  1.00278544  3097
NUSANTARA LIMA (NUSANT*)
1 65588U 25205A   26189.61769211 -.00000343  00000+0  00000+0 0  9994
2 65588   0.0140 198.4040 0000579 339.8003  83.5887  1.00270567  2933
TJS-20                  
1 66142U 25238A   26189.91271556  .00000043  00000+0  00000+0 0  9996
2 66142   5.4231 299.4596 0004432 177.8792 200.5013  1.00273327  2552
CMS-03 (GSAT-7R)        
1 66311U 25249B   26189.91618711 -.00000062  00000+0  00000+0 0  9996
2 66311   0.0443 257.2801 0001614 180.1646 253.2192  1.00271286  2567
VIASAT-3 F2             
1 66454U 25261A   26189.84030685 -.00000219  00000+0  00000+0 0  9992
2 66454   0.0102 253.0228 0000834 326.7400 290.5675  1.00271043  3015
SHIJIAN-28 (SJ-28)      
1 66549U 25277A   26189.78517104 -.00000341  00000+0  00000+0 0  9999
2 66549   4.4852 271.7892 0001037  29.1083  25.3599  1.00270671  2374
TJS-22                  
1 66990U 25290A   26189.81747587  .00000008  00000+0  00000+0 0  9997
2 66990   1.4767 286.8425 0002276 318.1443  42.6084  1.00274617  2243
TJS-23                  
1 67226U 25306A   26189.54325663  .00000035  00000+0  00000+0 0  9995
2 67226   5.5398 297.3766 0004862 189.7244 170.4572  1.00273883  2101
FENGYUN 4C              
1 67246U 25312A   26189.81101338 -.00000308  00000+0  00000+0 0  9999
2 67246   0.0409 188.8932 0000535  16.1497 146.6861  1.00271999  1999
SHIJIAN-29A (SJ-29A)    
1 67302U 25315A   26189.91402122 -.00000055  00000+0  00000+0 0  9990
2 67302   3.4499  94.5950 0003351  32.1343 202.2966  1.00270667  1837
SHIJIAN-29B (SJ-29B)    
1 67403U 25315C   26189.91402120 -.00000056  00000+0  00000+0 0  9991
2 67403   3.4489  94.5886 0004789  50.0142 184.4902  1.00272008  1908
ELEKTRO-L 5             
1 67756U 26028A   26188.99441562 -.00000082  00000+0  00000+0 0  9993
2 67756   0.2171 321.0164 0001919 177.9706 221.0307  1.00271970  1461
JAM-E JAM 1             
1 67757U 26028B   26189.79138461  .00000170  00000+0  00000+0 0  9991
2 67757   0.2188 309.6752 0001556 327.3502 328.6192  1.00270829  1331
ECHOSTAR 25             
1 68126U 26045A   26189.69162821 -.00000042  00000+0  00000+0 0  9996
2 68126   0.0180  31.0735 0001493  76.1270 318.4277  1.00270615  1200
TJS-24                  
1 69235U 26116A   26189.91850285 -.00000217  00000+0  00000+0 0  9994
2 69235   0.0614  97.5542 0000221 111.6666 138.6103  1.00271764   440
